title,category,address,Postal Code,latitude,longitude
Onyx MMA,Muay Thai boxing gym,"10 Science Centre Rd, #01-02, Singapore 609079",609079,1.3306875,103.7384375
Extreme Fitness,Gym,"1 W Coast Dr, #01-24, Singapore 128020",128020,1.3164375,103.7574375
HomeTeamNS Fitness Workz Bukit Batok,Gym,"2 Bukit Batok West Ave 7, Singapore 659003",659003,1.3658125,103.7503125
Anytime Fitness,Gym,"154 West Coast Rd West Coast Plaza, 01-68, #69, Singapore 120501",120501,1.3036875,103.7660625
Anytime Fitness Clementi City,Gym,"3151 Commonwealth Ave W, #03-04 Grantral Mall, Singapore 129581",129581,1.3130625,103.7656875
Anytime Fitness,Gym,"91, 05-01 Bukit Batok West Ave 2, Block C, Singapore 659206",659206,1.3526875,103.7498125
Fitness First - Westgate,Gym,"3 Gateway Drive mall, #05-01 Westgate, Singapore 608532",608532,1.3343125,103.7429375
Anytime Fitness Pasir Panjang,Gym,"44 Pasir Panjang Rd, Blk #A01, Singapore 118504",118504,1.2751875,103.7943125
Anytime Fitness Valley Point,Gym,"Valley Point Shopping Centre 491, 02-02 River Valley Rd, Singapore 248371",248371,1.2934375,103.8271875
The Loft Gym,Gym,"141 Middle Rd, #01-02, Singapore 188976",188976,1.2994375,103.8521875
Bold Fitness,Gym,"2 Handy Rd, #04-05 The Cathay, Singapore 229233",229233,1.2994375,103.8474375
Bukit Gombak ActiveSG Gym,Gym,"810 Bukit Batok West Ave. 5, Singapore 659088",659088,1.3596875,103.7521875
Ritual Gym Holland Village,Gym,"17B Lor Liput, #02-01, Singapore 277747",277747,1.3104375,103.7950625
Anytime Fitness Potong Pasir,Gym,"SG, Tai Thong Cres, 15, Singapore 347849",347849,1.3293125,103.8694375
Platinum Fitness OUE – #1 Freelance PT Gym in Singapore,Gym,"6A Shenton Way, B1-04/05 OUE Downtown, Singapore 068815",68815,1.2771875,103.8485625
Anytime Fitness Choa Chu Kang,Gym,"190 Choa Chu Kang Ave 1, Singapore 689466",689466,1.3769375,103.7453125
WAO Fitness,Gym,"200 Turf Club Rd, Plot 9 Premier Pitch Indoors, Singapore 287994",287994,1.3358125,103.7941875
Anytime Fitness Buona Vista,Gym,"11 Biopolis Way, #01-04/05/06/07 Helios, Singapore 138667",138667,1.3045625,103.7916875
Anytime Fitness Kim Seng CC,Gym,"570 Havelock Road 01-14/15 & #02-11/12, 13 Kim Seng Rd, Community Center, Singapore 169640",169640,1.2894375,103.8310625
Fitness First - Fusionopolis,Gym,"1 Fusionopolis Way #23-11 & #24-00 Connexis North Tower, Singapore 138632",138632,1.2994375,103.7884375
Fitness First - The Metropolis,Gym,"11 North Buona Vista Drive, #02-07 & #03-07, The Metropolis, Tower 2, Singapore 138589",138589,1.3055625,103.7919375
Anytime Fitness Buangkok,Gym,"21 Hougang Street 51 02, #13A Green Shopping Mall, Singapore 538719",538719,1.3793125,103.8878125
MAX OUT Fitness,Gym,"181 Orchard Rd, #06-25 Central, Orchard, Singapore 238896",238896,1.3005625,103.8398125
Anytime Fitness Toa Payoh,Gym,"190 Lor 6 Toa Payoh, #02-516 Next to Pizza Hut, Singapore 310190",310190,1.3330625,103.8494375
JR Fitness Singapore (City Hall),Fitness center,"1 Coleman Street B1-19 The Adelphi, Singapore 179803",179803,1.29125,103.85125
Innervate Fitness,Gym,"398 Race Course Rd, Singapore 218651",218651,1.3151875,103.8574375
"Anytime Fitness, Telok Blangah",Gym,"Blk 78B, 02-15 Telok Blangah Street 32, Singapore 102078",102078,1.2736875,103.8084375
Actualize CrossFit,Gym,"251 Jln Besar, Singapore 208924",208924,1.3099375,103.8580625
Anytime Fitness Geylang Bahru,Gym,"1 Geylang Bahru Ln, #01-03 Kolam Ayer Community Club, Singapore 339631",339631,1.3243125,103.8696875
Fitness First - Clementi,Gym,"321 Clementi Avenue 3 6th, #7th floor &, Singapore 129905",129905,1.3120625,103.7649375
CHIMPCHAMP FITNESS (OG),Fitness center,"277 Orchard Rd, #02-12, Singapore 238858",238858,1.3008125,103.8390625
EXTREMER GYM PTE. LTD.,Gym,"116 Yio Chu Kang Rd, Singapore 545582",545582,1.3585625,103.8744375
Anytime Fitness,Gym,"170 Upper Bukit Timah Rd, Bukit Timah Shopping Centre, Singapore 588179",588179,1.3429375,103.7759375
Amore Fitness & Define,Gym,"17 Petir Rd, #B1-18, Singapore 678278",678278,1.3785625,103.7626875
IGYM@BISHAN,Gym,"272 Bishan Street 24, B1-228, Singapore 570272",570272,1.3563125,103.8426875
Toa Payoh ActiveSG Gym,Gym,"301 Lor 6 Toa Payoh, Singapore 319392",319392,1.3304375,103.8508125
Bespoke Fitness,Gym,"318A Tanglin Rd, The Guild International College, Singapore 247979",247979,1.2983125,103.8158125
Anytime Fitness,Gym,"302 Tiong Bahru Rd, #01-129 Tiong Bahru Plaza, Tiong Bahru Rd, Singapore 168732",168732,1.2863125,103.8264375
Anytime Fitness Taman Jurong,Gym,"1 Yung Sheng Rd, #01-02 Taman Jurong Community Club, Singapore 618495",618495,1.3351875,103.7215625
Dennis gym Balestier,Fitness center,"279 Balestier Rd, b1-00, Singapore 329727",329727,1.3228125,103.8519375
Anytime Fitness Marymount CC,Gym,"191 Sin Ming Avenue #03-01, Marymount Community Club, Singapore 575738",575738,1.3613125,103.8415625
Anytime Fitness hillV2,Gym,"4 Hillview Rise, #02-18/19, Singapore 667979",667979,1.3630625,103.7641875
THE GYM,Gym,"42 E Coast Rd, #01-01, Singapore 428762",428762,1.3043125,103.9029375
The Gym Pod @ One North,Gym,"Ayer Rajah Crescent, Singapore 139957",139957,1.2976875,103.7871875
SAFRA EnergyOne (SAFRA Toa Payoh),Gym,"295 Lor 6 Toa Payoh, Singapore 319388",319388,1.3299375,103.8544375
Fit · Bloc,Rock climbing gym,"87 Science Park Dr, #03-02 The Oasis, Singapore 118260",118260,1.2878125,103.7904375
ActiveSG Gym at Toa Payoh West CC,Gym,"Level 3 200 Lorong 2 Toa Payoh WEST COMMUNITY CLUB, Singapore 319642",319642,1.3351875,103.8451875
Star Elite Fitness Personal Training Gym in Orchard,Gym,"8 Grange Rd, #03-01 Cineleisure Orchard, Singapore 239695",239695,1.3015625,103.8363125
Anytime Fitness Hougang CC,Gym,"35 Hougang Ave 3, #02-01, Singapore 538840",538840,1.3646875,103.8925625
Anytime Fitness Kovan,Gym,"JForte Sportainment Centre, 50 Hougang Ave 1, Level 2, Singapore 538885",538885,1.3603125,103.8880625
Fitness Factory,Personal trainer,"82 Boat Quay, #02-01, Singapore 049870",49870,1.2884375,103.8493125
Clementi ActiveSG Gym,Gym,"518 Clementi Ave 3, Singapore 129907",129907,1.3109375,103.7650625
Virgin Active Marina One,Gym,"7 Straits View, #02-01 Marina One East Tower, Singapore 018936",18936,1.2779375,103.8528125
Anytime Fitness,Gym,"17 Cantonment Rd, Singapore 089740",89740,1.2791875,103.8401875
F45 Training Rochor,Gym,"#02-02, The Concourse, 300 Beach Rd, Singapore 199555",199555,1.3010625,103.8626875
Anytime Fitness MacPherson,Gym,"400 Paya Lebar Way, #03-05/06, MacPherson Community Club, Singapore 379131",379131,1.3233125,103.8846875
CrossFit Morpheus,Gym,"812 Upper Bukit Timah Rd, Singapore 678146",678146,1.3733125,103.7630625
Fitness First - Bugis Junction,Gym,"200 Victoria Street #04-02 Bugis Junction, Singapore 188021",188021,1.2991875,103.8553125
Bishan ActiveSG Gym,Gym,"5 Bishan Street 14, Singapore 579783",579783,1.3554375,103.8514375
The Strength Yard,Gym,"369 Joo Chiat Rd, Singapore 427614",427614,1.3081875,103.9034375
Anytime Fitness Jurong East Central,Gym,"134 Jurong Gateway Rd, #01-311, Singapore 600134",600134,1.3341875,103.7389375
Anytime Fitness,Gym,"10 Anson Rd, #03-41 International Plaza, Singapore 079903",79903,1.2760625,103.8459375
Freedom Gym,Fitness center,"5 Shenton Way, #02-01 UIC Building, Singapore 068808",68808,1.2778125,103.8496875
Extreme Fitness @ The Chevrons,Gym,"48 Boon Lay Way, #01-06 The Chevrons, Singapore 609961",609961,1.3310625,103.7483125
Aileron Wellness,Gym,"52 W Coast Ferry Rd, Republic Of Singapore Yacht Club, Singapore 126887",126887,1.2929375,103.7634375
VF Fitness,Muay Thai boxing gym,"298 Jln Besar, Singapore 208959",208959,1.3110625,103.8593125
Gravity,Fitness center,"CapitaGreen #38-01, 138 Market St, Singapore 048946",48946,1.2818125,103.8500625
PURE Fitness Asia Square,Gym,"Level 6, Asia Square Tower 1, 8 Marina View, Singapore 018960",18960,1.2790625,103.8510625
Fitness First - Paragon,Gym,"290 Orchard Rd, #08-13 Paragon, Singapore 238859",238859,1.3034375,103.8353125
Anytime Fitness Ang Mo Kio,Gym,"4190 Ang Mo Kio Ave 6, #01-02 Broadway Plaza, Singapore 569841",569841,1.3719375,103.8459375
ActiveSG Gym at Ang Mo Kio Community Centre,Gym,"795 Ang Mo Kio Ave 1, Singapore 569976",569976,1.3669375,103.8404375
Level,Personal trainer,"137 Telok Ayer St, #01-03, Singapore 068602",68602,1.2808125,103.8480625
CrossFit Urban Edge,Gym,"12 Bukit Pasoh Rd, Singapore 089826",89826,1.2789375,103.8409375
GRITYARD (Outram),Gym,"2 College Rd, Singapore 169850",169850,1.2824375,103.8356875
Strength Avenue,Gym,"57B Boat Quay, Level 3, Singapore 049846",49846,1.2873125,103.8491875
Genesis Gym,Personal trainer,"Katong Shopping Centre, Annexe Block #04-01, 865 Mountbatten Rd, Singapore 437844",437844,1.3044375,103.9015625
PrimeFit Personal Training Gym,Personal trainer,"55 Market St, #B1-01, Singapore 048941",48941,1.2844375,103.8504375
Fitness First @ Junction 10,Fitness center,"1 Woodlands Rd, #02-01, Singapore 677899",677899,1.3809375,103.7599375
Anytime Fitness,Gym,"221 Boon Lay Pl, #03-106, Singapore 640221",640221,1.3460625,103.7120625
Anytime Fitness Hougang Central,Gym,"1187 Upper Serangoon Road Hougang Central 2 B1, #01 The Midtown, Singapore 533971",533971,1.3704375,103.8953125
IGYM@SERANGOON,Gym,"756 Upper Serangoon Rd, #02-02 Upper Serangoon Shopping Centre, Singapore 534626",534626,1.3535625,103.8788125
Anytime Fitness Tampines West CC,Gym,"5 Tampines Avenue 3, #02-03, Tampines West Community Club, Singapore 529705",529705,1.3489375,103.9358125
Contours Express Women's Gym Jurong East,Gym,"135 Jurong Gateway Rd, #04-319, Singapore 600135",600135,1.3336875,103.7390625
Juggernaut Fight Club,Martial arts school,"275 Beach Rd, #01-01, Singapore 199549",199549,1.3008125,103.8603125
GYMMBOXX Ci Yuan,Gym,"51 Hougang Ave 9, Ci Yuan Community Centre, Singapore 538776",538776,1.3751875,103.8829375
Box Office Fitness (Singapore),Boxing gym,"35 N Canal Rd, #03-01, Singapore 059291",59291,1.2869375,103.8471875
Enabling Village ActiveSG Gym,Gym,"20 Lengkok Bahru, #01-05 Enabling Village, Singapore 159053",159053,1.2871875,103.8148125
Dynamic Fitness Gym,Gym,"48 Yio Chu Kang Rd, Singapore 545559",545559,1.3570625,103.8758125
Gforce Fitness,Gym,"5 Toh Tuck Link, #2-00, Singapore 596224",596224,1.3305625,103.7570625
GoFit Geylang,Gym,"22 Lor 18 Geylang, Singapore 398804",398804,1.3118125,103.8804375
UFC Gym Singapore | Fitness Franchise | Martial Arts | Gym,Gym,"1 Raffles Link, B1-47, Singapore 039393",39393,1.2918125,103.8558125
Singapore Calisthenics Academy,Gym,"11 Collyer Quay, LEVEL #20-00, Singapore 049317",49317,1.2835625,103.8523125
F45 Training Macpherson West,Gym,"181, 185 MacPherson Rd, Singapore 348544",348544,1.3303125,103.8751875
The Jungle MMA,Muay Thai boxing gym,"35 Boat Quay, Singapore 049824",49824,1.2863125,103.8496875
Platinum Fitness Tanglin – #1 Premium Members Gym in Singapore,Gym,"163 Tanglin Rd, #02-118/119/120 Tanglin Mall, Singapore 247933",247933,1.3050625,103.8238125
Anytime Fitness,Gym,"638 Jurong West Street 61, #03-01 Pioneer Mall, Singapore 640638",640638,1.3416875,103.6970625
GYMMBOXX Bishan,Fitness center,"51 Bishan Street 13, #04-01/02, Bishan Community Club, Singapore 579799",579799,1.3499375,103.8508125
Core Collective Anson,Wellness center,"79 Anson Rd, #21-01, #22-01, Singapore 079906",79906,1.2743125,103.8456875
TFX Fitness - Funan,Gym,"107 North Bridge Rd, #04-18, Singapore 179105",179105,1.2911875,103.8501875
Anytime Fitness Jurong Point,Gym,"1 Jurong West Central 2 JP1#03-24/25, Singapore 648886",648886,1.3400625,103.7060625
Anytime Fitness NEX,Gym,"23 Serangoon Central, #04-73/74/75 nex Serangoon Central Central Singapore, Singapore 556083",556083,1.3509375,103.8724375
Fitness First Paya Lebar,Gym,"10 Eunos Road 8 #02-104 Singapore Post Centre, Singapore 408600",408600,1.3189375,103.8948125
Fenix Fitness,Gym,"30 Raffles Pl, #22F, Singapore 048622",48622,1.2840625,103.8520625
Athlete Lab Singapore,Gym,"71 Amoy St, Singapore 069890",69890,1.2803125,103.8465625
Anytime Fitness Nanyang CC,Gym,"60 Jurong West Street 91, #01-08 Nanyang Community Club, Singapore 649040",649040,1.3424375,103.6925625
BFT Outram,Gym,"331 New Bridge Rd, #01-04, Singapore 088764",88764,1.2800625,103.8403125
Ark Move Woodleigh,Gym,"462 Upper Serangoon Rd, Singapore 534496",534496,1.3438125,103.8709375
XYCO Studio,Gym,"22 Martin Rd, #02-02, Singapore 239058",239058,1.2918125,103.8384375
F45 Training Jurong West,Gym,"7 Jurong West Ave 5, #02-05, Singapore 649486",649486,1.3488125,103.7034375
Dennis Gym - Farrer Park,Gym,"159b kitchener Road Singapore 208530, Singapore 280530",280530,1.3101875,103.8568125
JR Fitness Singapore (Novena),Gym,"55 Newton Rd, #05-02, Singapore 307987",307987,1.3199375,103.8421875
EQUIP,Gym,"78 Rifle Range Rd, Singapore 588384",588384,1.3409375,103.7794375
The Gym Pod @ Punggol Park,Gym,"Hougang Ave 10, Singapore 538768",538768,1.3775625,103.8973125
Rev Fight Club,Gym,"46 South Bridge Rd, #02-02, Singapore 058679",58679,1.2878125,103.8481875
SWEAT!,Gym,"4 Everton Park, #01-50, Singapore 080004",80004,1.2769375,103.8401875
Anytime Fitness Sengkang Rivervale,Gym,"Rivervale Mall, 11 Rivervale Cres, #02-01, Singapore 545082",545082,1.3923125,103.9045625
The Lab Fitness SG,Gym,"7 One-North Gtwy, #01-15, Singapore 138642",138642,1.3024375,103.7899375
Amore Fitness & Define,Gym,"Sengkang West Avenue 02-38, 33 Sengkang West Ave, #33 The Seletar Mall, Singapore 797653",797653,1.3913125,103.8764375
Trium Fitness,Fitness center,"12 Kallang Ave, #03-01, Singapore 339511",339511,1.3093125,103.8641875
Amore Fitness & Define,Gym,"03-17, 63 Jurong West Central 3, #2 Jurong Point, Singapore 648331",648331,1.3393125,103.7054375
Anytime Fitness D'Arena Jurong,Gym,"511 Upper Jurong Rd, #02-05 Anytime Fitness D'Arena, Singapore 638366",638366,1.3294375,103.6823125
Sparkd | The Brain & Fitness Hub,Gym,"46 Kim Yam Road The Herencia Unit 04-23 & 24, Singapore 239351",239351,1.2928125,103.8386875
The Ring Boxing Community (Kim Yam Road),Boxing gym,"58 Kim Yam Rd, #01-01, Singapore 239359",239359,1.2929375,103.8395625
Yio Chu Kang ActiveSG Gym,Gym,"200 Ang Mo Kio Ave 9, Singapore 569770",569770,1.3821875,103.8459375
The Little Gym,Gym,"FORUM The Shopping Mall, B1-24, 583 Orchard Road, 583 Orchard Rd, B1-24, Singapore 238884",238884,1.30625,103.82875
CruCycle,Fitness center,"68 Duxton Rd, #01-01, Singapore 089527",89527,1.2780625,103.8429375
The Little Gym of Singapore East,Gym,"6 Raffles Blvd, 164 Marina Square, #03-163, Singapore 039594",39594,1.2920625,103.8565625
Ark Move West Coast,Gym,"2 Clementi West Street 2, #03-01 West Coast Community Club, Singapore 129605",129605,1.3028125,103.7650625
The Gym Pod @ Alexandra Technopark,Gym,"438A Alexandra Rd, Alexandra Technopark, Singapore 119967",119967,1.2778125,103.8008125
Ultimate Performance Personal Trainers Singapore,Personal trainer,"8 Cross Street Ground Floor, Singapore 048424",48424,1.2826875,103.8490625
BearyFun Gym @ Bukit Batok,Gymnastics center,"2 Bukit Batok Street 22, Singapore 659581",659581,1.3443125,103.7483125
Dennis Gym Hq,Gym,"30 Tai Seng St, #08 04A, Singapore 534013",534013,1.3343125,103.8895625
Cut Gym,Gym,"144 Neil Rd, Singapore 088873",88873,1.2783125,103.8406875
Fortitude Martial Arts & Fitness,Martial arts school,"320c King George's Ave, Singapore 208564",208564,1.3096875,103.8619375
Urban Active Fitness,Personal trainer,"105 Cecil St, #13-01 The Octagon, Singapore 069534",69534,1.2806875,103.8491875
Anytime Fitness Tanjong Katong,Gym,"174/176 E Coast Rd, Singapore 428880",428880,1.3066875,103.9063125
9Round East Coast Road,Gym,"131 E Coast Rd, #02-01, Singapore 428816",428816,1.3061875,103.9049375
oompf! fitness,Personal trainer,"130 E Coast Rd, Singapore 428815",428815,1.3060625,103.9053125
"BFIT | Physio, Sports & Fitness (Katong, East Coast)",Physical therapist,"66 E Coast Rd, Unit 05-01 The Flow @ East Coast, Singapore 428778",428778,1.3048125,103.9036875
Anytime Fitness Kembangan,Gym,"398 Changi Rd, #01-03, Singapore 419845",419845,1.3186875,103.9114375
Anytime Fitness Marine Parade Central,Gym,"86 Marine Parade Central, #01-670, Singapore 440086",440086,1.3018125,103.9069375
Inspire Fitness Asia,Muay Thai boxing gym,"462B Joo Chiat Rd, Singapore 427674",427674,1.3061875,103.9045625
Tribody Fitness,Gym,"50 Joo Chiat Pl, Singapore 427774",427774,1.3134375,103.9014375
The Kampung Gym,Gym,"47 Guillemard Rd, Singapore 399703",399703,1.3096875,103.8784375
Ritual Gym East Coast,Gym,"451 Joo Chiat Rd, #03-12, Singapore 427664",427664,1.3069375,103.9045625
Gymmboxx JCube,Gym,"2 Jurong East Central 1, #03-04 to 06 JCube, Singapore 609731",609731,1.3330625,103.7404375
Higher Performance SG,Gym,"188-6 Tanjong Katong Rd, Singapore 436990",436990,1.3091875,103.8944375
Anytime Fitness,Gym,"11 Tanjong Katong Rd, Singapore 437157",437157,1.3143125,103.8944375
Genesis Gym,Personal trainer,"354, #01-06 Alexandra Rd, Alexis Condominium, Singapore 159948",159948,1.2915625,103.8076875
Evolve MMA (Far East Square),Martial arts school,"26 China Street, #01-01 Far East Square, Singapore 049568",49568,1.2829375,103.8479375
Hercules Fitness Gym,Gym,"176 Joo Chiat Rd, #02-01, Singapore 427447",427447,1.3125625,103.9000625
Tesseract Fitness (IFBB) Pte Ltd,Gym,"492 Changi Rd, Singapore 419900",419900,1.3191875,103.9138125
Sync Cycle East Coast,Fitness center,"282 E Coast Rd, Singapore 428946",428946,1.3081875,103.9090625
BXG Boxing & Fitness,Muay Thai boxing gym,"356 Tanjong Katong Rd, Singapore 437119",437119,1.3034375,103.8966875
Cecil Street Anytime Fitness,Gym,"139 Cecil St, #04-01, Singapore 069539",69539,1.2795625,103.8484375
Spartans Boxing Club Joo Chiat,Boxing gym,"393 Joo Chiat Rd, Singapore 427625",427625,1.3078125,103.9038125
24XFITNESS Bugis,Gym,"112 Middle Rd, #02-00 Midland House, Singapore 188970",188970,1.2990625,103.8538125
D'Fitness,Personal trainer,"20B E Coast Rd, Level B, Singapore 428747",428747,1.3040625,103.9024375
Beatfactory Fitness Pte. Ltd.,Fitness center,"545 Orchard Road #10-11 Far East Shopping Centre, Singapore 238882",238882,1.3055625,103.8300625
F45 Tanjong Katong,Gym,"216 Tanjong Katong Rd, Singapore 437009",437009,1.3073125,103.8953125
Anytime Fitness Serangoon Garden,Gym,"53 Serangoon Garden Way, Singapore 555949",555949,1.3633125,103.8658125
Anytime Fitness Upper Cross Street,Gym,"531 Upper Cross Street #01-07, Hong Lim Complex, Singapore 050531",50531,1.2840625,103.8459375
Fitness First - Alexandra (Mapletree Business City),Gym,"20 Pasir Panjang Road #07-29 Mapletree Business City, Singapore 117439",117439,1.2750625,103.7990625
Ritual Gym Raffles Place,Gym,"11 N Canal Rd, #03-01, Singapore 048824",48824,1.28625,103.84875
Barry’s Singapore Raffles Place,Gym,"18 Robinson Rd, #03-03, Singapore 048547",48547,1.2816875,103.8505625
Field Assembly Clarke Quay,Gym,"39 Carpenter Street, Levels 1, 3 & 4, Singapore 059918",59918,1.2879375,103.8478125
Encore Muay Thai Fitness,Muay Thai boxing gym,"452a Joo Chiat Rd, Singapore 427665",427665,1.3064375,103.9044375
Jurong East ActiveSG Gym,Gym,"21 Jurong East Street 31, Singapore 609517",609517,1.3468125,103.7291875
BoOm Singapore,Gym,"62 Cecil St, B1-00 TPI Building, Singapore 049710",49710,1.2820625,103.8495625
Contours Express Women's Gym Serangoon,Gym,"253 Serangoon Central Dr, #02-227, Singapore 550253",550253,1.3540625,103.8709375
MSFIT Personal Training Clarke Quay,Gym,"19 Hongkong St, #01-01, Singapore 059662",59662,1.2878125,103.8471875
Gold's Gym Personal Training - Tanjong Katong,Personal trainer,"218 Tanjong Katong Rd, Singapore 437010",437010,1.3071875,103.8953125
F45 Training Siglap,Gym,"52 Burnfoot Terrace, Frankel Estate, Singapore 459838",459838,1.3128125,103.9228125
Gold's Gym Personal Training,Personal trainer,"2 International Business Park, #01-05 The Strategy, Singapore 609930",609930,1.3301875,103.7471875
Gold's Gym Personal Training - Joo Chiat,Personal trainer,"428 Joo Chiat Rd, Singapore 427645",427645,1.3066875,103.9040625
UFC GYM Singapore City Square Mall,Gym,"180 Kitchener Rd, #06-02/04, Singapore 208539",208539,1.3114375,103.8565625
Anytime Fitness Greenwich V,Gym,"1 Seletar Rd, #02-05/06 Greenwich V, Singapore 807011",807011,1.3875625,103.8695625
R10T,Gym,"140 Robinson Rd, Level 3, Singapore 068907",68907,1.2784375,103.8483125
Anytime Fitness Bedok Central,Gym,"445 Bedok North Street 1, #03-01 Djitsun Mall, Singapore 469661",469661,1.3260625,103.9294375
Pilates Fitness (Serangoon),Pilates studio,"85A Serangoon Garden Way, Singapore 555981",555981,1.3639375,103.8649375
Ground Zero - Cross Street Exchange,Gym,"18 Cross St, #B1-120, Singapore 048423",48423,1.2835625,103.8470625
Anytime Fitness Bukit Panjang,Gym,"8 Pending Rd, #03-01, Singapore 678295",678295,1.3763125,103.7708125
The PIT,Personal trainer,"123 Devonshire Rd, Singapore 239883",239883,1.2998125,103.8363125
PURE Fitness Suntec City,Gym,"#03-318 to 323 3 Temasek Boulevard Suntec City Mall North Wing, Singapore 038983",38983,1.2959375,103.8584375
The System Gym,Gym,"23 Kampong Bahru Rd, #01-01, Singapore 169349",169349,1.2771875,103.8366875
Core Collective Dempsey,Wellness center,"27a Loewen Rd, #27A, 30B/C 27a, Singapore 248839",248839,1.3035625,103.8119375
Reshape Sports,Gym,"3 Lor Liput, #02-03, Singapore 277725",277725,1.3106875,103.7951875
F45 Training Downtown East Singapore,Fitness center,"1 Pasir Ris Cl, #02-343 E! Avenue, Singapore 519599",519599,1.3778125,103.9555625
Anytime Fitness,Gym,"9 Tampines Street 32, #02-01 Tampines Mart, Singapore 529286",529286,1.3543125,103.9601875
Lab Studios East Coast,Yoga studio,"135/137 E Coast Rd, #03-01 directly above Zaffron Kitchen, Singapore 428820",428820,1.3061875,103.9050625
24ACEFIT,Fitness center,"320 Serangoon Road 18-13 Centrium Square, Singapore 218108",218108,1.3108125,103.8548125
Mobilus Chinatown,Gym,"90, Block C Eu Tong Sen St, #01-11, Singapore 059811",59811,1.2831875,103.8415625
Gold's Gym Personal Training,Personal trainer,"67 Frankel Ave, Singapore 458194",458194,1.3156875,103.9188125
1Fiesta Jurong East,Fitness center,"131 Jurong Gateway Rd, #03-257, Singapore 600131",600131,1.3345625,103.7401875
1nfinite Academy,Muay Thai boxing gym,"17b Circular Rd, #3rd floor, Singapore 049373",49373,1.2874375,103.8489375
Anytime Fitness,Gym,"3 Simei Street 6, #03-25/26, Eastpoint Mall, Singapore 528833",528833,1.3428125,103.9530625
Anytime Fitness Queensway,Gym,"Queensway Shopping Centre Queensway 03-51 1, Singapore 149053",149053,1.2873125,103.8035625
Anytime Fitness Jalan Besar,Gym,"Rehau Building 1, 01-00 King George's Ave, Singapore 208557",208557,1.3070625,103.8586875
Anytime Fitness Upper Thomson,Gym,"246R Upper Thomson Rd, #01-01, Singapore 574370",574370,1.3539375,103.8341875
Anytime Fitness Hwi Yoh CC,Gym,"23 Serangoon North Ave 4, #01-01 Hwi Yoh Community Centre, Singapore 555857",555857,1.3744375,103.8736875
Fitness Bravo,Gym,"762 North Bridge Rd, Singapore 198730",198730,1.3033125,103.8596875
Fitness First @ AMK Hub,Gym,"53 Ang Mo Kio Ave 3, #B1-36, Singapore 569933",569933,1.3696875,103.8486875
Elevate 360,Gym,"8A Maju Ave, Garden Estate, Singapore 556686",556686,1.3648125,103.8656875
Fitness First @ One Raffles Quay,Gym,"1 Raffles Quay, #08-01 One Raffles Quay, Singapore 048583",48583,1.2811875,103.8516875
Centum Fitness Lab,Fitness center,"18 Sin Ming Ln, #06-07 Midview City, Singapore 573960",573960,1.3593125,103.8344375
Anytime Fitness Tampines (formerly known as Tampines North),Gym,"506 Tampines Central 1, #03-361, Singapore 520506",520506,1.3559375,103.9458125
Anytime Fitness New Tech Park,Gym,"151 Lor Chuan, #01-12, NTP+ 556741",556741,1.3513125,103.8616875
Move to Live,Gym,"8A Biomedical Grove, #01-20, Singapore 138648",138648,1.3020625,103.7935625
Mobilus Clarke Quay,Gym,"20 Upper Circular Rd, #B1-10/16 The Riverwalk, Singapore 058416",58416,1.2889375,103.8483125
F45 Training Upper Thomson,Gym,"183 Upper Thomson Rd, #B1-02/03 183, Longhaus 574429",574429,1.3509375,103.8355625
Singa Gym,Gym,"1 Tampines North Dr. 1, #01-19, Singapore 528559",528559,1.3718125,103.9338125
Anytime Fitness ACE The Place CC,Gym,"120 Woodlands Ave 1, #02-01 ACE The Place Community Club, Singapore 739069",739069,1.4275625,103.7920625
The Fesique Lab,Gym,"42D N Canal Rd, Singapore 059298",59298,1.2871875,103.8468125
Vigeo: SG Personal Trainer | Training Studio And Gym at Dhoby Ghaut,Personal trainer,"6 Fort Canning Rd, YWCA Fort Canning, Singapore 179494",179494,1.2975625,103.8449375
Fight G,Boxing gym,"41 N Canal Rd, Singapore 059297",59297,1.2870625,103.8469375
Anytime Fitness Woodgrove,Gym,"30, Woodlands Avenue, Woodgrove Dr, #01-20/21/22 The Woodgrove, Singapore 739065",739065,1.4293125,103.7809375
The Gym Pod @ 462 Crawford Lane,Gym,"462 Crawford Ln, #01-49, Singapore 190462",190462,1.3044375,103.8610625
Body Fit Training One North,Gym,"1 Fusionopolis Walk, #01-03 Solaris, Singapore 138628",138628,1.2980625,103.7903125
Breathe Pilates - Galaxis,Pilates studio,"1, 1-04 Fusionopolis Pl, Singapore 138522",138522,1.3000625,103.7883125
The Faculty of Calisthenics and Yoga,Gym,"723A North Bridge Rd, Singapore 198691",198691,1.3028125,103.8588125
THE LIONS DEN,Gym,"36 Robinson Road B1, #02, Singapore 068877",68877,1.2813125,103.8499375
Anytime Fitness,Gym,"20 Choa Chu Kang Street 52, #03-01, Singapore 689286",689286,1.3949375,103.7446875
Anytime Fitness Choa Chu Kang Centre,Gym,"309 Choa Chu Kang Ave 4, #03-01, Singapore 680309",680309,1.3851875,103.7456875
GymKraft,Gymnastics center,"1 Stadium Pl, #01-69/70 Wave Mall, Singapore 397638",397638,1.3025625,103.8735625
Anytime Fitness NorthShore plaza,Gym,"408 Northshore Drive, #01-20/21, Northshore Dr, I 22/23, Singapore 820408",820408,1.4169375,103.9021875
A GYM,Fitness center,"11 Northshore Dr, Singapore 828670",828670,1.4150625,103.8994375
Anytime Fitness,Gym,"1 North Point Dr, #02 - 175 / 178, Singapore 768019",768019,1.4284375,103.8368125
Naksu Muay Thai Gym,Muay Thai boxing gym,"324b King George's Ave, Singapore 208566",208566,1.3099375,103.8619375
University Sports Centre (USC),Gym,"2 Sports Drive 1, National University of Singapore, Singapore 117561",117561,1.2998125,103.7753125
Gold's Gym,Personal trainer,"36 Hongkong St, #01-01, Singapore 059675",59675,1.2874375,103.8473125
F45 Training Bukit Batok Central,Gym,"2 Bukit Batok Street 23, #01-03, Connection 659554",659554,1.3439375,103.7533125
Eminent Gym,Sports club,"43 C Beach Rd, Singapore 189681",189681,1.2963125,103.8558125
Anytime Fitness,Gym,"598 Yishun Ring Rd, B1-26/27 Wisteria Mall, Singapore 768698",768698,1.4185625,103.8409375
Anytime Fitness Punggol Oasis,Gym,"681 Punggol Dr., #01-16 Oasis Terraces, Singapore 820681",820681,1.4030625,103.9131875
WeBarre,Gym,"1 Zubir Said Drive, #02-01, School of the Arts, Singapore 227968",227968,1.2994375,103.8489375
Woodlands ActiveSG Sports Centre,Sports complex,"2 Woodlands Street 12, Singapore 738599",738599,1.4340625,103.7798125
Anytime Fitness Galaxy CC,Gym,"31 Woodlands Ave 6, #05-01/02 Galaxy Community Club, Singapore 738991",738991,1.4390625,103.8026875
Anytime Fitness Sembawang,Gym,"604 Sembawang Road, #02-11/12/14, Sembawang Shopping Centre, Singapore 758459",758459,1.4420625,103.8250625
Kinetics Climbing,Rock climbing gym,"511 Serangoon Rd, Singapore 218153",218153,1.3146875,103.8573125
Yishun ActiveSG Gym,Gym,"101 Yishun Ave 1, Singapore 769130",769130,1.4121875,103.8313125
ZINGA FITNESS,Gym,"11 Bedok North Street 1, #01-14 HEARTBEAT@BEDOK, Singapore 469662",469662,1.3271875,103.9323125
Ground Up Climbing,Rock climbing gym,"60 Tessensohn Road CSC@Tessensohn (Level 2, Singapore 217664",217664,1.3158125,103.8561875
F45 Training Serangoon Garden South,Gym,"11 Lichfield Rd, Singapore 556831",556831,1.3643125,103.8700625
Gold's Gym,Personal trainer,"43 South Bridge Rd, Singapore 058677",58677,1.2874375,103.8485625
Woodlands ActiveSG Gym,Gym,"3 Woodlands Street 13, Singapore 738600",738600,1.4345625,103.7795625
Muay Art Fitness,Gym,"48 Woodleigh Park, Singapore 357844",357844,1.3425625,103.8675625
Tribal Fitness Gym,Gym,"35b Pagoda St, Singapore 059194",59194,1.2830625,103.8448125
F45 Training Boat Quay,Gym,"73/75 South Bridge Rd, Singapore 058705",58705,1.2866875,103.8480625
Rising Personal Training,Gym,"466 River Valley Rd, Singapore 248351",248351,1.2936875,103.8268125
Athletic Inc,Gym,"68 South Bridge Rd, #02-01, Singapore 058698",58698,1.2873125,103.8480625
UFIT CBD Hub - Club Street,Gym,"21 Club St, #01-01, Singapore 069410",69410,1.2824375,103.8466875
Apeiro Personal Training Singapore,Gym,"100 Orchard Rd, #02-01 Concorde Hotel, Singapore 238840",238840,1.3006875,103.8424375
Van Lee Fitness,Gym,"Pagoda Street 30A, Level 2, Singapore 059189",59189,1.2833125,103.8446875
Virgin Active Raffles Place,Gym,"1 Raffles Pl, Tower 2, Level 6, Singapore 048616",48616,1.2844375,103.8509375
Fitness First - Market Street (Raffles Place),Gym,"63 Market Street #02-01 & #03-01 Bank of Singapore Centre, Singapore 048942",48942,1.2844375,103.8505625
Fitness First - One George Street,Gym,"1 George St, #05-01 One George Street, Singapore 049145",49145,1.2856875,103.8474375
Aurora Spin Studio at South Beach Quarter,Fitness center,"36 Beach Rd, #02-01/02-02, Singapore 189766",189766,1.2958125,103.8561875
Hybrid Fitness,Gym,"321 Orchard Rd, Orchard Shopping Centre, #04-01/02/05/06/07, Singapore 238866",238866,1.3014375,103.8379375
Active Zone - Women Only Kickboxing Fitness,Kickboxing school,"47 Beach Road, #03-03 Kheng Chiu Building, Singapore 189683",189683,1.2963125,103.8559375
Banyan Tree Fitness Club,Gym,"10 Bayfront Ave, Singapore 018956",18956,1.2835625,103.8606875
Gold's Gym,Gym,"118a Tg Pagar Rd, Singapore 088531",88531,1.2778125,103.8435625
Fitness First @ 100AM,Gym,"100 Tras St, #04 - 16B, Singapore 079027",79027,1.2750625,103.8436875
TECHNIQ TRAINING,Gym,"43 Carpenter St, #03-01 Greatwood Building, Singapore 059922",59922,1.2878125,103.8480625
Pom Pi Pi Functional Fitness & Personal Training,Gym,"69 Circular Rd, #02-01, Singapore 049423",49423,1.2864375,103.8490625
Energia Fitness Club,Gym,"30 Merchant Road #04-11/12 Riverside Point, Singapore 058282",58282,1.2893125,103.8441875
FaMA - Fitness and Martial Arts,Martial arts school,"30 Prinsep St, #03-01, Singapore 188647",188647,1.2990625,103.8493125
Habit SG,Gym,"33a Hongkong St, Level 2, Singapore 059672",59672,1.2874375,103.8471875
Anytime Fitness Boon Keng,Gym,"294A Lavender St., Singapore 338807",338807,1.3148125,103.8599375
Division Athletics,Gym,"78 Shenton Way, B1-01, Singapore 079120",79120,1.2731875,103.8453125
Fitness First - Capital Tower,Gym,"168 Robinson Rd, #09-01 Capital Tower, Singapore 068912",68912,1.2780625,103.8474375
Ritual Gym Tiong Bahru,Gym,"66 Eng Watt St, #01-06, Singapore 160066",160066,1.2835625,103.8328125
Virgin Active Duo Galleria,Gym,"7 Fraser St, #01-09 Duo Galleria, Singapore 189356",189356,1.3000625,103.8585625
1nfinity Gym,Gym,"125 Bukit Merah Lane 1, #01-172 beside Monica Florist, Singapore 150125",150125,1.2859375,103.8030625
Ministry of Fitness,Gym,"06-01 Telok Ayer Street Annex B (Above Amoy Food Centre, Mnd Building, Singapore 069111",69111,1.2788125,103.8466875
Flex Fitness,Personal trainer,"292 River Valley Rd, Singapore 238333",238333,1.2953125,103.8416875
Pulse Lab,Gym,"1 Aliwal St, Level 3 unit 1B, Singapore 199894",199894,1.3018125,103.8613125
Anytime Fitness Bedok South Bedok CC,Gym,"850 New Upper Changi Rd, #02-22, Singapore 467352",467352,1.3243125,103.9360625
Genesis Gym,Personal trainer,"10, Blk C Winstedt Rd, #01-15, Singapore 227977",227977,1.3101875,103.8416875
Anytime Fitness Balestier,Gym,"288 Balestier Road Balestier, Central, Singapore 329731",329731,1.3228125,103.8528125
One Wellness Fitness Club,Fitness center,"247A / 247B Victoria Street, Bugis, Singapore 188033",188033,1.3004375,103.8553125
V FIT Singapore,Gym,"14 Mohamed Sultan Rd, Singapore 238963",238963,1.2936875,103.8416875
Ascend Fitness,Gym,"Basement 1, 1 Orchard Rd, YMCA, Singapore 238824",238824,1.2975625,103.8480625
Rasa Fitness & Dance Academy,Gym,"3 Coleman Street Peninsula Shopping Centre, #02-19, Singapore 179804",179804,1.2920625,103.8500625
Amore Fitness & Define,Gym,"205 Hougang Street 21, #03-31/32/33 Heartland Mall, Singapore 530205",530205,1.3594375,103.8849375
True Fitness,Fitness center,"9 Raffles Blvd, Singapore 039596",39596,1.2928125,103.8598125
Senior Gym | Fitness Classes by NTUC Health @ ActiveSG Gym - Serangoon Central,Gym,"264 Serangoon Central, #01-207, Singapore 550264",550264,1.3524375,103.8720625
Evolve MMA (Clarke Quay Central),Martial arts school,"6, #04-18 Eu Tong Sen St, Clarke Quay Central, Singapore 059817",59817,1.2893125,103.8470625
Foxgloves Fight Gym,Boxing gym,"9 Purvis St, #05-02, Singapore 188588",188588,1.2966875,103.8551875
F45 Training Tanjong Pagar,Gym,"11 Keppel Rd, #01-02/03 ABI Plaza, Singapore 089057",89057,1.2731875,103.8428125
Virgin Active Tanjong Pagar,Gym,"7 Wallich St, #06-01, Singapore 078881",78881,1.2768125,103.8458125
The Gym Pod @ 163 Bukit Merah Central,Gym,"Blk 163 Bukit Merah Central, #03-3601, Singapore 150163",150163,1.2836875,103.8169375
FITLUC,Personal trainer,"21A Keong Saik Rd., Singapore 089128",89128,1.2798125,103.8413125
REVOLT @ The Sail - Exclusive Personal Training Gym,Gym,"2 Marina Blvd, #02-01 The Sail, Singapore 018987",18987,1.2813125,103.8528125
STILL Boxing,Boxing gym,"6A Shenton Way, #B1-06 OUE Downtown Gallery, Singapore 068809",68809,1.2783125,103.8493125
Anytime Fitness Tampines Central,Gym,"866A Tampines Street 83, #03-10 Central Community Complex, Singapore 521866",521866,1.3553125,103.9344375
Green Curve SG EcoGym,Gym,"104 Amoy St, #03-01 MailBox 104 B, Singapore 069924",69924,1.2816875,103.8473125
Gold's Gym,Personal trainer,"222 River Valley Rd, Singapore 238280",238280,1.2938125,103.8425625
F45 River Valley,Gym,"372 River Valley Rd, Singapore 248280",248280,1.2959375,103.8305625
BBOUNCE,Gym,"176 Orchard Rd, #06 - 09, Singapore 238843",238843,1.3016875,103.8395625
Gold's Gym Personal Training - Bugis,Personal trainer,"21 Bali Ln, Singapore 189857",189857,1.3009375,103.8586875
Elevate Performance Gym,Gym,"3 Neil Rd, Singapore 088805",88805,1.2801875,103.8436875
ActiveSG Hockey Village Gym @ Boon Lay,Gym,"88 Boon Lay Pl, Singapore 649883",649883,1.3476875,103.7115625
Delta ActiveSG Gym,Gym,"900 Tiong Bahru Rd, Singapore 158790",158790,1.2904375,103.8205625
NTU Sports and Recreation Centre (SRC) Hall D,Gym,"639798, 50 Nanyang Ave, Singapore 639798",639798,1.3491875,103.6876875
Woodlands Sports Hall,Gym,"2 Woodlands Street 12, Singapore 738620",738620,1.4343125,103.7796875
Nee Soon Sports Centre,Gym,"32 Yishun Central 1, Singapore 760932",760932,1.4275625,103.8386875
Spartans Boxing Club Dhoby Ghaut,Boxing gym,"1 Sophia Rd, #03-40 Peace Centre, Singapore 228149",228149,1.3013125,103.8494375
Tampines Gymnasium,Gym,"495 Tampines Ave 5, Singapore 529649",529649,1.3535625,103.9400625
MRC Boxing Barn,Boxing gym,"55 Boat Quay, Singapore 049844",49844,1.2873125,103.8493125
Tampines ActiveSG Gym,Gym,"1 Tampines Walk, #07-31, Singapore 528523",528523,1.3536875,103.9408125
Spartans Boxing Club Buona Vista,Boxing gym,"30 South Buona Vista Rd, Singapore 118160",118160,1.2805625,103.7869375
Onyx MMA East,Muay Thai boxing gym,"1A Tampines Street 92, #02-69 SAFRA, Singapore 528882",528882,1.3446875,103.9416875
Fitness First - Changi (UE Biz Hub),Gym,"6 Changi Business Park Avenue 1, North Tower, #02-21 UE BizHub East, Singapore 486017",486017,1.3350625,103.9641875
Legends Fight Sport Tampines | Top Boxing Gym Singapore,Boxing gym,"6 Tampines Street 92, #01-16 Yoha Tampines, Singapore 528893",528893,1.3433125,103.9418125
Alpha Gymnastics Pte Ltd,Gymnastics center,"750 Chai Chee Rd, #01-13B ESR BizPark @ Chai Chee, Singapore 469000",469000,1.3235625,103.9224375
Onyx MMA North,Muay Thai boxing gym,"60 Yishun Ave 4, Level 2 Beside EnergyOne Gym, Singapore 769027",769027,1.4241875,103.8409375
Amore Fitness & Define,Gym,"06-11 Woodlands Civic Centre, 900 S Woodlands Dr, Singapore 730900",730900,1.4351875,103.7871875
SlingShot Lab,Gym,"11c Lor Telok, Singapore 049024",49024,1.2866875,103.8485625
The Ring Boxing Community (Orchard),Boxing gym,"1 Claymore Dr, #01-01A, Singapore 229594",229594,1.3078125,103.8293125
Bianka Panova Academy,Gymnastics center,"2 Bukit Merah Central, #02-03, Singapore 159835",159835,1.2848125,103.8138125
"True Fitness (Djitsun Mall, Ang Mo Kio)",Gym,"5 Ang Mo Kio Central 2, #04-01 Djitsun Mall, Singapore 569663",569663,1.3728125,103.8478125
International Yoga Centre Singapore,Yoga studio,"57 Oxley Rd, Singapore 238642",238642,1.2965625,103.8408125
Yoga Shala Singapore,Yoga studio,"Punggol E, Singapore 821657",821657,1.3995625,103.9216875
Yoga Inc East Coast Park,Yoga studio,"920 ECP, #01-11, Singapore 449875",449875,1.2996875,103.9069375
On Good Ground,Yoga studio,"458B Joo Chiat Rd, Singapore 427671",427671,1.3061875,103.9045625
Platinum Yoga Marine Parade (Parkway Centre),Yoga studio,"1 Marine Parade Central 11-05 Parkway Center, Singapore 449408",449408,1.3018125,103.9060625
Mudita Yoga SG,Yoga studio,"761A North Bridge Rd, Singapore 198729",198729,1.3034375,103.8594375
Iyengar Yoga Center of Central Singapore,Yoga studio,"25A Bukit Pasoh Rd, Singapore 089839",89839,1.2791875,103.8405625
Grasio Sports Silat School - Pioneer Zone '5' RC,Martial arts school,"667D Jurong West Street 65, Singapore 644667",644667,1.3416875,103.7020625
Neue Fit,Martial arts school,"1 Stadium Pl, #02-07, Singapore 397628",397628,1.3028125,103.8733125
Zen Academy,Martial arts school,"61 Sims Dr, #01-131, Singapore 380061",380061,1.3166875,103.8786875
Grasio Sports Silat School - Bishan North CC,Martial arts school,"233 Bishan Street 22, Singapore 570233",570233,1.3586875,103.8453125
WKOSS Central Dojo (Honbu Dojo),Karate club,"576c Serangoon Rd, Singapore 218190",218190,1.3146875,103.8579375
The Moving Body Group,Pilates studio,"217 East Coast Road 05-02 Tides Building, Singapore 428915",428915,1.3075625,103.9069375
Swing Studio,Pilates studio,"116 Changi Rd, Singapore 419718",419718,1.3165625,103.9011875
East Side Pilates,Pilates studio,"30 E Coast Rd, #03-19, Singapore 428751",428751,1.3038125,103.9029375
Body n'Sync Singapore,Pilates studio,"14 robinson rd far east finance bldg #02-03, Singapore 048545",48545,1.2821875,103.8508125
MY FITNESS PILATES,Pilates studio,"Telok Kurau Rd, Singapore 423881",423881,1.3120625,103.9105625
The Core Reformery,Pilates studio,"420 North Bridge Road #05-20 North Bridge Centre, Singapore 188727",188727,1.2971875,103.8549375
Singapore Taekwon-do Academy @ Mandarin Gardens Marine Parade East Coast,Taekwondo school,"Mandarin Gardens Clubhouse, Marine Parade Siglap, E Coast Rd, Singapore 448908",448908,1.3078125,103.9250625
Jumping Singapore,Fitness center,"Far East Plaza, 14 Scotts Rd, #01-100, Singapore 228213",228213,1.3069375,103.8334375
Singapore Taekwon-do Academy @ Cherie Hearts,Taekwondo school,"Bedok Central, New Upper Changi Rd, Singapore 460219",460219,1.3246875,103.9330625
Singapore Taekwon-do Academy @ Aquarius Bedok Tampines Simei East Coast,Taekwondo school,"Aquarius Bedok Clubhouse, Bedok Reservoir View Tampines, Singapore 478928",478928,1.3378125,103.9356875
Singapore Taekwon-do Academy @ Yishun Northpoint #03-38 Little Arts Academy,Taekwondo school,"Northpoint City Mall, Level 03-38 North Wing, at, Little Arts Academy Studio, Singapore 769098",769098,1.4294375,103.8360625
Grandmaster B S Huan Taekwon-do International @ Yishun Northpoint City Singapore Taekwondo Academy,Taekwondo school,"Northpoint City Mall #03-38, North Wing, Yishun Central, Little Arts Academy, Singapore 769099",769099,1.4291875,103.8355625
SwoleFit Garage,Fitness center,"Mega @ Woodlands, Singapore 737856",737856,1.4385625,103.8068125
Revolution Bugis,Fitness center,"520 North Bridge Rd, #03–01, Singapore 188742",188742,1.2986875,103.8560625
Elite Coach Sports Academy | Farrer Park,Fitness center,"291 serangoon road 03-00 City Square MRT Exit, A, #50m, Singapore 218107",218107,1.3113125,103.8548125